[{"OBJECT_NAME":"STARLINK-31675","OBJECT_ID":"2024-074Q","EPOCH":"2026-03-09T03:36:08.398944","MEAN_MOTION":15.27570707,"ECCENTRICITY":9.13e-6,"INCLINATION":43.002,"RA_OF_ASC_NODE":346.4129,"ARG_OF_PERICENTER":29.6362,"MEAN_ANOMALY":330.4495,"EPHEMERIS_TYPE":0,"CLASSIFICATION_TYPE":"U","NORAD_CAT_ID":59548,"ELEMENT_SET_NO":999,"REV_AT_EPOCH":10593,"BSTAR":-0.00011532771,"MEAN_MOTION_DOT":-3.433e-5,"MEAN_MOTION_DDOT":0},{"OBJECT_NAME":"TRANSPORTER-12 OBJECT BA","OBJECT_ID":"2025-009BA","EPOCH":"2026-03-09T16:49:42.568896","MEAN_MOTION":15.27214003,"ECCENTRICITY":4.03e-5,"INCLINATION":97.3985,"RA_OF_ASC_NODE":151.139,"ARG_OF_PERICENTER":234.6623,"MEAN_ANOMALY":125.4579,"EPHEMERIS_TYPE":0,"CLASSIFICATION_TYPE":"U","NORAD_CAT_ID":62657,"ELEMENT_SET_NO":999,"REV_AT_EPOCH":6373,"BSTAR":0.00042732654,"MEAN_MOTION_DOT":0.0001133,"MEAN_MOTION_DDOT":0}]
